{
  "type": "FeatureCollection",
  "features": [
    {
      "type": "Feature",
      "properties": {
        "norad_id": 30564,
        "name": "FENGYUN 1C DEB",
        "group": "fengyun-1c-debris",
        "lat": 74.20512836794883,
        "lon": -40.9021388838924,
        "alt_km": 791.0741611597668,
        "timestamp": "2025-12-06T07:31:40.514186+00:00",
        "meta_object_name": "FENGYUN 1C DEB",
        "meta_object_id": "1999-025ALE",
        "meta_epoch": "2025-12-05T00:41:14.560800",
        "meta_mean_motion": 14.05726157,
        "meta_eccentricity": 0.02029079,
        "meta_inclination": 98.7964,
        "meta_ra_of_asc_node": 351.0373,
        "meta_arg_of_pericenter": 140.4525,
        "meta_mean_anomaly": 278.9964,
        "meta_ephemeris_type": 0,
        "meta_classification_type": "U",
        "meta_norad_cat_id": 30564,
        "meta_element_set_no": 999,
        "meta_rev_at_epoch": 96187,
        "meta_bstar": 0.00095750367,
        "meta_mean_motion_dot": 1.839e-05,
        "meta_mean_motion_ddot": 0,
        "tle_line1": "1 30564U 99025ALE 25339.02864075  .00001839  00000+0  95750-3 0  9996",
        "tle_line2": "2 30564  98.7964 351.0373 0202907 140.4525 278.9964 14.05726157961870"
      },
      "geometry": {
        "type": "Point",
        "coordinates": [
          -40.9021388838924,
          74.20512836794883
        ]
      }
    },
    {
      "type": "Feature",
      "properties": {
        "norad_id": 30565,
        "name": "FENGYUN 1C DEB",
        "group": "fengyun-1c-debris",
        "lat": 40.32386002292814,
        "lon": 38.173344338903526,
        "alt_km": 914.5712121584647,
        "timestamp": "2025-12-06T07:31:40.514196+00:00",
        "meta_object_name": "FENGYUN 1C DEB",
        "meta_object_id": "1999-025ALF",
        "meta_epoch": "2025-12-04T14:18:48.038112",
        "meta_mean_motion": 14.0985227,
        "meta_eccentricity": 0.0142886,
        "meta_inclination": 98.4532,
        "meta_ra_of_asc_node": 209.3081,
        "meta_arg_of_pericenter": 19.1804,
        "meta_mean_anomaly": 47.3784,
        "meta_ephemeris_type": 0,
        "meta_classification_type": "U",
        "meta_norad_cat_id": 30565,
        "meta_element_set_no": 999,
        "meta_rev_at_epoch": 95812,
        "meta_bstar": 0.0038127,
        "meta_mean_motion_dot": 7.34e-05,
        "meta_mean_motion_ddot": 0,
        "tle_line1": "1 30565U 99025ALF 25338.59638933  .00007340  00000+0  38127-2 0  9997",
        "tle_line2": "2 30565  98.4532 209.3081 0142886  19.1804  47.3784 14.09852270958123"
      },
      "geometry": {
        "type": "Point",
        "coordinates": [
          38.173344338903526,
          40.32386002292814
        ]
      }
    },
    {
      "type": "Feature",
      "properties": {
        "norad_id": 30566,
        "name": "FENGYUN 1C DEB",
        "group": "fengyun-1c-debris",
        "lat": 35.83655239315074,
        "lon": 21.944966462671413,
        "alt_km": 898.4162796074197,
        "timestamp": "2025-12-06T07:31:40.514207+00:00",
        "meta_object_name": "FENGYUN 1C DEB",
        "meta_object_id": "1999-025ALG",
        "meta_epoch": "2025-12-05T02:42:12.185856",
        "meta_mean_motion": 14.11630631,
        "meta_eccentricity": 0.00681781,
        "meta_inclination": 99.2171,
        "meta_ra_of_asc_node": 27.4461,
        "meta_arg_of_pericenter": 203.1027,
        "meta_mean_anomaly": 213.4854,
        "meta_ephemeris_type": 0,
        "meta_classification_type": "U",
        "meta_norad_cat_id": 30566,
        "meta_element_set_no": 999,
        "meta_rev_at_epoch": 96275,
        "meta_bstar": 0.0027733882,
        "meta_mean_motion_dot": 5.109e-05,
        "meta_mean_motion_ddot": 0,
        "tle_line1": "1 30566U 99025ALG 25339.11264104  .00005109  00000+0  27734-2 0  9995",
        "tle_line2": "2 30566  99.2171  27.4461 0068178 203.1027 213.4854 14.11630631962752"
      },
      "geometry": {
        "type": "Point",
        "coordinates": [
          21.944966462671413,
          35.83655239315074
        ]
      }
    },
    {
      "type": "Feature",
      "properties": {
        "norad_id": 30567,
        "name": "FENGYUN 1C DEB",
        "group": "fengyun-1c-debris",
        "lat": 56.45883710915215,
        "lon": -42.30398177896515,
        "alt_km": 925.5270184387527,
        "timestamp": "2025-12-06T07:31:40.514217+00:00",
        "meta_object_name": "FENGYUN 1C DEB",
        "meta_object_id": "1999-025ALH",
        "meta_epoch": "2025-12-04T23:08:24.918720",
        "meta_mean_motion": 14.08887538,
        "meta_eccentricity": 0.0108444,
        "meta_inclination": 98.775,
        "meta_ra_of_asc_node": 329.8558,
        "meta_arg_of_pericenter": 211.3584,
        "meta_mean_anomaly": 206.0407,
        "meta_ephemeris_type": 0,
        "meta_classification_type": "U",
        "meta_norad_cat_id": 30567,
        "meta_element_set_no": 999,
        "meta_rev_at_epoch": 96664,
        "meta_bstar": 0.00043416,
        "meta_mean_motion_dot": 7.49e-06,
        "meta_mean_motion_ddot": 0,
        "tle_line1": "1 30567U 99025ALH 25338.96417730  .00000749  00000+0  43416-3 0  9994",
        "tle_line2": "2 30567  98.7750 329.8558 0108444 211.3584 206.0407 14.08887538966646"
      },
      "geometry": {
        "type": "Point",
        "coordinates": [
          -42.30398177896515,
          56.45883710915215
        ]
      }
    },
    {
      "type": "Feature",
      "properties": {
        "norad_id": 30568,
        "name": "FENGYUN 1C DEB",
        "group": "fengyun-1c-debris",
        "lat": -43.29102450692061,
        "lon": 158.5798420419332,
        "alt_km": 719.0308601160677,
        "timestamp": "2025-12-06T07:31:40.514227+00:00",
        "meta_object_name": "FENGYUN 1C DEB",
        "meta_object_id": "1999-025ALJ",
        "meta_epoch": "2025-12-04T23:19:11.696160",
        "meta_mean_motion": 14.54800713,
        "meta_eccentricity": 0.0016873,
        "meta_inclination": 98.9421,
        "meta_ra_of_asc_node": 148.6154,
        "meta_arg_of_pericenter": 217.3215,
        "meta_mean_anomaly": 274.0648,
        "meta_ephemeris_type": 0,
        "meta_classification_type": "U",
        "meta_norad_cat_id": 30568,
        "meta_element_set_no": 999,
        "meta_rev_at_epoch": 97546,
        "meta_bstar": 0.0066542,
        "meta_mean_motion_dot": 0.00028656,
        "meta_mean_motion_ddot": 0,
        "tle_line1": "1 30568U 99025ALJ 25338.97166315  .00028656  00000+0  66542-2 0  9997",
        "tle_line2": "2 30568  98.9421 148.6154 0016873 217.3215 274.0648 14.54800713975467"
      },
      "geometry": {
        "type": "Point",
        "coordinates": [
          158.5798420419332,
          -43.29102450692061
        ]
      }
    },
    {
      "type": "Feature",
      "properties": {
        "norad_id": 30569,
        "name": "FENGYUN 1C DEB",
        "group": "fengyun-1c-debris",
        "lat": -76.10668069742384,
        "lon": -99.64949759979288,
        "alt_km": 661.8759528512101,
        "timestamp": "2025-12-06T07:31:40.514238+00:00",
        "meta_object_name": "FENGYUN 1C DEB",
        "meta_object_id": "1999-025ALK",
        "meta_epoch": "2025-12-05T07:32:03.531264",
        "meta_mean_motion": 14.73136288,
        "meta_eccentricity": 0.00068314,
        "meta_inclination": 98.7381,
        "meta_ra_of_asc_node": 117.7235,
        "meta_arg_of_pericenter": 120.4004,
        "meta_mean_anomaly": 239.7877,
        "meta_ephemeris_type": 0,
        "meta_classification_type": "U",
        "meta_norad_cat_id": 30569,
        "meta_element_set_no": 999,
        "meta_rev_at_epoch": 98097,
        "meta_bstar": 0.006743876,
        "meta_mean_motion_dot": 0.00043683,
        "meta_mean_motion_ddot": 0,
        "tle_line1": "1 30569U 99025ALK 25339.31392976  .00043683  00000+0  67439-2 0  9994",
        "tle_line2": "2 30569  98.7381 117.7235 0006831 120.4004 239.7877 14.73136288980975"
      },
      "geometry": {
        "type": "Point",
        "coordinates": [
          -99.64949759979288,
          -76.10668069742384
        ]
      }
    },
    {
      "type": "Feature",
      "properties": {
        "norad_id": 30570,
        "name": "FENGYUN 1C DEB",
        "group": "fengyun-1c-debris",
        "lat": 60.290824858139125,
        "lon": -2.6043700762108712,
        "alt_km": 863.7315091439759,
        "timestamp": "2025-12-06T07:31:40.514248+00:00",
        "meta_object_name": "FENGYUN 1C DEB",
        "meta_object_id": "1999-025ALL",
        "meta_epoch": "2025-12-05T00:57:18.586080",
        "meta_mean_motion": 14.14247795,
        "meta_eccentricity": 0.00349271,
        "meta_inclination": 98.7161,
        "meta_ra_of_asc_node": 11.7488,
        "meta_arg_of_pericenter": 234.1153,
        "meta_mean_anomaly": 185.5066,
        "meta_ephemeris_type": 0,
        "meta_classification_type": "U",
        "meta_norad_cat_id": 30570,
        "meta_element_set_no": 999,
        "meta_rev_at_epoch": 96889,
        "meta_bstar": 0.00082289044,
        "meta_mean_motion_dot": 1.537e-05,
        "meta_mean_motion_ddot": 0,
        "tle_line1": "1 30570U 99025ALL 25339.03979845  .00001537  00000+0  82289-3 0  9994",
        "tle_line2": "2 30570  98.7161  11.7488 0034927 234.1153 185.5066 14.14247795968897"
      },
      "geometry": {
        "type": "Point",
        "coordinates": [
          -2.6043700762108712,
          60.290824858139125
        ]
      }
    }
  ]
}